{
  "type": "FeatureCollection",
  "features": [
    {
      "type": "Feature",
      "properties": {
        "name": "深圳站",
        "category": "站点"
      },
      "geometry": {
        "type": "Point",
        "coordinates": [
          114.0579,
          22.5431
        ]
      }
    },
    {
      "type": "Feature",
      "properties": {
        "name": "香港西九龙",
        "category": "站点"
      },
      "geometry": {
        "type": "Point",
        "coordinates": [
          114.1694,
          22.3193
        ]
      }
    }
  ]
}